NORAD_CAT_ID,OBJECT_NAME,OBJECT_TYPE,EPOCH,MEAN_MOTION,ECCENTRICITY,INCLINATION,RA_OF_ASC_NODE,ARG_OF_PERICENTER,MEAN_ANOMALY,BSTAR,MEAN_MOTION_DOT,MEAN_MOTION_DDOT,TLE_LINE0,TLE_LINE1,TLE_LINE2,SEMIMAJOR_AXIS,PERIOD,APOGEE,PERIGEE,DECAYED
53983.0,STARLINK-5103,PAYLOAD,2023-04-29 14:00:01,15.08848518,7.34e-05,53.2156,215.6217,44.8367,172.4522,-0.0022981,-0.00036683,0.0,0 STARLINK-5103,1 53983U 22125V   23119.58335648 -.00036683  00000-0 -22981-2 0  9990,2 53983  53.2156 215.6217 0000734  44.8367 172.4522 15.08848518 31894,6917.854,95.437,540.227,539.212,0.0
53983.0,STARLINK-5103,PAYLOAD,2023-04-30 00:00:00,15.08829519,5.76e-05,53.216,213.75,51.1849,270.5328,0.00065437,0.00010139,0.0,0 STARLINK-5103,1 53983U 22125V   23120.00001157  .00010139  00000-0  65437-3 0  9994,2 53983  53.2160 213.7500 0000576  51.1849 270.5328 15.08829519 31965,6917.912,95.438,540.176,539.379,0.0
53983.0,STARLINK-5103,PAYLOAD,2023-04-30 11:17:53,15.0884206,6.96e-05,53.2156,211.636,66.3539,293.7526,0.00034064,5.138e-05,0.0,0 STARLINK-5103,1 53983U 22125V   23120.47075481  .00005138  00000-0  34064-3 0  9991,2 53983  53.2156 211.6360 0000696  66.3539 293.7526 15.08842060 31961,6917.874,95.437,540.221,539.258,0.0
53983.0,STARLINK-5103,PAYLOAD,2023-05-01 09:33:17,15.08838861,8.68e-05,53.2149,207.4708,114.1556,245.9526,0.00010545,1.391e-05,0.0,0 STARLINK-5103,1 53983U 22125V   23121.39811588  .00001391  00000-0  10545-3 0  9994,2 53983  53.2149 207.4708 0000868 114.1556 245.9526 15.08838861 32171,6917.884,95.438,540.349,539.148,0.0
53983.0,STARLINK-5103,PAYLOAD,2023-05-01 11:08:40,15.08836281,6.3e-05,53.216,207.1738,105.5838,254.5223,0.00012318,1.673e-05,0.0,0 STARLINK-5103,1 53983U 22125V   23121.46435725  .00001673  00000-0  12318-3 0  9990,2 53983  53.2160 207.1738 0000630 105.5838 254.5223 15.08836281 32116,6917.892,95.438,540.193,539.321,0.0
53983.0,STARLINK-5103,PAYLOAD,2023-05-02 10:59:27,15.08846445,9.23e-05,53.2158,202.712,127.7543,232.3533,9.4793e-05,1.221e-05,0.0,0 STARLINK-5103,1 53983U 22125V   23122.45795249  .00001221  00000-0  94793-4 0  9997,2 53983  53.2158 202.7120 0000923 127.7543 232.3533 15.08846445 32338,6917.861,95.437,540.364,539.087,0.0
53983.0,STARLINK-5103,PAYLOAD,2023-05-02 14:10:13,15.08847237,7.8e-05,53.2157,202.1187,116.9394,243.1677,0.00018331,2.631e-05,0.0,0 STARLINK-5103,1 53983U 22125V   23122.59043286  .00002631  00000-0  18331-3 0  9998,2 53983  53.2157 202.1187 0000780 116.9394 243.1677 15.08847237 32282,6917.858,95.437,540.263,539.184,0.0
53983.0,STARLINK-5103,PAYLOAD,2023-05-02 22:07:08,15.08857231,7.03e-05,53.2161,200.6319,93.9983,266.1089,0.00038815,5.898e-05,0.0,0 STARLINK-5103,1 53983U 22125V   23122.92162784  .00005898  00000-0  38815-3 0  9997,2 53983  53.2161 200.6319 0000703  93.9983 266.1089 15.08857231 32401,6917.828,95.436,540.179,539.206,0.0
53983.0,STARLINK-5103,PAYLOAD,2023-05-03 10:50:14,15.08835725,7.49e-05,53.2166,198.2562,113.9498,246.1572,-6.1541e-05,-1.267e-05,0.0,0 STARLINK-5103,1 53983U 22125V   23123.45155511 -.00001267  00000-0 -61541-4 0  9997,2 53983  53.2166 198.2562 0000749 113.9498 246.1572 15.08835725 32489,6917.893,95.438,540.277,539.24,0.0
53983.0,STARLINK-5103,PAYLOAD,2023-05-03 12:25:38,15.08823358,9.26e-05,53.2164,197.9593,87.4552,272.6546,-0.000271,-4.596e-05,0.0,0 STARLINK-5103,1 53983U 22125V   23123.51780214 -.00004596  00000-0 -27100-3 0  9998,2 53983  53.2164 197.9593 0000926  87.4552 272.6546 15.08823358 32428,6917.931,95.439,540.437,539.156,0.0
53983.0,STARLINK-5103,PAYLOAD,2023-05-03 23:33:20,15.0883114,7.24e-05,53.2152,195.8759,80.7501,279.3572,-0.00018718,-3.265e-05,0.0,0 STARLINK-5103,1 53983U 22125V   23123.98148193 -.00003265  00000-0 -18718-3 0  9990,2 53983  53.2152 195.8759 0000724  80.7501 279.3572 15.08831140 32568,6917.907,95.438,540.273,539.272,0.0
53983.0,STARLINK-5103,PAYLOAD,2023-05-04 12:16:25,15.08842209,9.03e-05,53.215,193.4985,89.9971,270.1124,0.00065224,0.00010108,0.0,0 STARLINK-5103,1 53983U 22125V   23124.51140379  .00010108  00000-0  65224-3 0  9994,2 53983  53.2150 193.4985 0000903  89.9971 270.1124 15.08842209 32573,6917.874,95.437,540.363,539.114,0.0
53983.0,STARLINK-5103,PAYLOAD,2023-05-05 10:31:49,15.08854369,0.0001001,53.2145,189.3355,84.0113,276.0993,0.00067219,0.0001043,0.0,0 STARLINK-5103,1 53983U 22125V   23125.43876264  .00010430  00000-0  67219-3 0  9999,2 53983  53.2145 189.3355 0001001  84.0113 276.0993 15.08854369 32788,6917.836,95.437,540.394,539.009,0.0
53983.0,STARLINK-5103,PAYLOAD,2023-05-05 21:39:30,15.08852555,0.0001066,53.2143,187.2544,74.6737,285.4373,0.00044051,6.732e-05,0.0,0 STARLINK-5103,1 53983U 22125V   23125.90244122  .00006732  00000-0  44051-3 0  9992,2 53983  53.2143 187.2544 0001066  74.6737 285.4373 15.08852555 32850,6917.842,95.437,540.444,538.97,0.0
53983.0,STARLINK-5103,PAYLOAD,2023-05-06 07:11:49,15.0884373,0.0001089,53.2139,185.4685,109.6021,250.5089,0.00013543,1.868e-05,0.0,0 STARLINK-5103,1 53983U 22125V   23126.29988196  .00001868  00000-0  13543-3 0  9998,2 53983  53.2139 185.4685 0001089 109.6021 250.5089 15.08843730 32842,6917.869,95.437,540.487,538.981,0.0
53983.0,STARLINK-5103,PAYLOAD,2023-05-07 10:13:22,15.08849829,0.0001091,53.2145,180.4126,108.1355,251.9755,0.00014793,2.068e-05,0.0,0 STARLINK-5103,1 53983U 22125V   23127.42595765  .00002068  00000-0  14793-3 0  9991,2 53983  53.2145 180.4126 0001091 108.1355 251.9755 15.08849829 33088,6917.85,95.437,540.47,538.961,0.0
53983.0,STARLINK-5103,PAYLOAD,2023-05-08 02:07:14,15.08838335,0.0001106,53.2148,177.4398,97.0626,263.0492,9.2716e-05,1.188e-05,0.0,0 STARLINK-5103,1 53983U 22125V   23128.08836426  .00001188  00000-0  92716-4 0  9990,2 53983  53.2148 177.4398 0001106  97.0626 263.0492 15.08838335 33185,6917.885,95.438,540.516,538.985,0.0
53983.0,STARLINK-5103,PAYLOAD,2023-05-08 19:36:29,15.08836229,0.0001191,53.2159,174.1699,94.1687,265.9442,7.5102e-05,9.07e-06,0.0,0 STARLINK-5103,1 53983U 22125V   23128.81700596  .00000907  00000-0  75102-4 0  9997,2 53983  53.2159 174.1699 0001191  94.1687 265.9442 15.08836229 33225,6917.892,95.438,540.581,538.933,0.0
53983.0,STARLINK-5103,PAYLOAD,2023-05-09 06:44:10,15.08841608,0.000117,53.2158,172.0877,91.5604,268.5522,0.00010867,1.442e-05,0.0,0 STARLINK-5103,1 53983U 22125V   23129.28068234  .00001442  00000-0  10867-3 0  9996,2 53983  53.2158 172.0877 0001170  91.5604 268.5522 15.08841608 33366,6917.875,95.437,540.55,538.931,0.0
53983.0,STARLINK-5103,PAYLOAD,2023-05-10 09:45:44,15.08834846,0.0001242,53.2148,167.0335,92.1029,268.0105,0.00010459,1.377e-05,0.0,0 STARLINK-5103,1 53983U 22125V   23130.40676959  .00001377  00000-0  10459-3 0  9995,2 53983  53.2148 167.0335 0001242  92.1029 268.0105 15.08834846 33465,6917.896,95.438,540.62,538.902,0.0
53983.0,STARLINK-5103,PAYLOAD,2023-05-10 19:18:03,15.08840544,0.0001256,53.2149,165.2494,92.2047,267.9089,0.00010964,1.457e-05,0.0,0 STARLINK-5103,1 53983U 22125V   23130.80420730  .00001457  00000-0  10964-3 0  9993,2 53983  53.2149 165.2494 0001256  92.2047 267.9089 15.08840544 33526,6917.879,95.438,540.613,538.875,0.0
53983.0,STARLINK-5103,PAYLOAD,2023-05-10 22:28:49,15.08843035,0.0001305,53.2152,164.6555,93.4078,266.7063,4.251e-05,3.89e-06,0.0,0 STARLINK-5103,1 53983U 22125V   23130.93668611  .00000389  00000-0  42510-4 0  9995,2 53983  53.2152 164.6555 0001305  93.4078 266.7063 15.08843035 33610,6917.871,95.437,540.639,538.833,0.0
53983.0,STARLINK-5103,PAYLOAD,2023-05-11 09:36:31,15.08842398,0.0001288,53.2162,162.5743,96.8736,263.2402,5.8246e-05,6.39e-06,0.0,0 STARLINK-5103,1 53983U 22125V   23131.40036854  .00000639  00000-0  58246-4 0  9997,2 53983  53.2162 162.5743 0001288  96.8736 263.2402 15.08842398 33615,6917.873,95.437,540.629,538.847,0.0
53983.0,STARLINK-5103,PAYLOAD,2023-05-11 19:08:51,15.08833969,0.0001266,53.2154,160.7876,86.005,274.1087,0.00010954,1.456e-05,0.0,0 STARLINK-5103,1 53983U 22125V   23131.79781261  .00001456  00000-0  10954-3 0  9999,2 53983  53.2154 160.7876 0001266  86.0050 274.1087 15.08833969 33679,6917.899,95.438,540.64,538.888,0.0
53983.0,STARLINK-5103,PAYLOAD,2023-05-11 23:55:00,15.08831916,0.0001261,53.2152,159.8954,86.9847,273.1289,8.5987e-05,1.081e-05,0.0,0 STARLINK-5103,1 53983U 22125V   23131.99653545  .00001081  00000-0  85987-4 0  9997,2 53983  53.2152 159.8954 0001261  86.9847 273.1289 15.08831916 33775,6917.905,95.438,540.642,538.898,0.0
53983.0,STARLINK-5103,PAYLOAD,2023-05-12 18:59:38,15.08841305,0.0001238,53.2156,156.3269,86.7532,273.3602,8.7962e-05,1.112e-05,0.0,0 STARLINK-5103,1 53983U 22125V   23132.79141209  .00001112  00000-0  87962-4 0  9995,2 53983  53.2156 156.3269 0001238  86.7532 273.3602 15.08841305 33823,6917.876,95.437,540.598,538.885,0.0
53983.0,STARLINK-5103,PAYLOAD,2023-05-13 07:42:42,15.08846637,0.0001216,53.2155,153.9478,86.0089,274.1042,0.000131,1.798e-05,0.0,0 STARLINK-5103,1 53983U 22125V   23133.32132718  .00001798  00000-0  13100-3 0  9992,2 53983  53.2155 153.9478 0001216  86.0089 274.1042 15.08846637 33902,6917.86,95.437,540.566,538.884,0.0
53983.0,STARLINK-5103,PAYLOAD,2023-05-13 18:50:24,15.08842345,0.0001197,53.2155,151.8663,84.953,275.1598,0.00010139,1.326e-05,0.0,0 STARLINK-5103,1 53983U 22125V   23133.78500946  .00001326  00000-0  10139-3 0  9990,2 53983  53.2155 151.8663 0001197  84.9530 275.1598 15.08842345 33977,6917.873,95.437,540.566,538.91,0.0
53983.0,STARLINK-5103,PAYLOAD,2023-05-13 23:36:34,15.08833101,0.0001227,53.2156,150.9757,84.1794,275.9338,7.9106e-05,9.71e-06,0.0,0 STARLINK-5103,1 53983U 22125V   23133.98373662  .00000971  00000-0  79106-4 0  9990,2 53983  53.2156 150.9757 0001227  84.1794 275.9338 15.08833101 34072,6917.901,95.438,540.615,538.918,0.0
53983.0,STARLINK-5103,PAYLOAD,2023-05-14 07:33:30,15.08836294,0.0001214,53.2155,149.488,88.4049,271.7082,8.975e-05,1.141e-05,0.0,0 STARLINK-5103,1 53983U 22125V   23134.31493548  .00001141  00000-0  89750-4 0  9990,2 53983  53.2155 149.4880 0001214  88.4049 271.7082 15.08836294 34051,6917.892,95.438,540.597,538.917,0.0
